FLOCK 4BE-27            
1 60513U 24149AX  26068.75339182  .00011439  00000+0  36576-3 0  9992
2 60513  97.3862 150.6783 0002732 305.8980  54.2008 15.32593322 86906
STARLINK-35352          
1 66177U 25243A   26068.75763720  .00025991  00000+0  88636-3 0  9991
2 66177  53.1590 244.9720 0000736  66.9614 293.1464 15.30208384 20665
